[{"name": "Amrit Thaps", "Id": 111111111, "address": "113 1st Way", "city": "Portland", "state": "OR", "zipcode": 97201, "status": "Valid"}, {"name": "James Smith", "Id": 257398102, "address": "200 Main St", "city": "Los Angeles", "state": "CA", "zipcode": 90001, "status": "Valid"}, {"name": "Buddy Johnson", "Id": 398127543, "address": "342 Park Ave", "city": "New York", "state": "NY", "zipcode": 10001, "status": "Suspended"}, {"name": "Chuple Williams", "Id": 492781345, "address": "567 Oak St", "city": "Chicago", "state": "IL", "zipcode": 60601, "status": "Suspended"}, {"name": "Feel Brown", "Id": 589312467, "address": "890 Elm Dr", "city": "Houston", "state": "TX", "zipcode": 77001, "status": "Suspended"}, {"name": "Thocc lancer", "Id": 671293480, "address": "123 Pine Ln", "city": "Phoenix", "state": "AZ", "zipcode": 85001, "status": "Valid"}, {"name": "Jessica Garcia", "Id": 783214569, "address": "456 Maple St", "city": "Philadelphia", "state": "PA", "zipcode": 19019, "status": "Suspended"}, {"name": "Chris Miller", "Id": 892134567, "address": "789 Cedar Rd", "city": "San Antonio", "state": "TX", "zipcode": 78201, "status": "Suspended"}, {"name": "Amanda Davis", "Id": 903841256, "address": "321 Birch Blvd", "city": "San Diego", "state": "CA", "zipcode": 92101, "status": "Valid"}, {"name": "Joshua Martinez", "Id": 109487234, "address": "213 Walnut Ave", "city": "Dallas", "state": "TX", "zipcode": 75201, "status": "Suspended"}, {"name": "Stephanie Wilson", "Id": 101129876, "address": "654 Spruce St", "city": "Austin", "state": "TX", "zipcode": 73301, "status": "Valid"}, {"name": "Kevin Anderson", "Id": 110283945, "address": "478 Ash Ct", "city": "Jacksonville", "state": "FL", "zipcode": 32099, "status": "Suspended"}, {"name": "Laura Thomas", "Id": 122349857, "address": "982 Pinecrest Rd", "city": "San Francisco", "state": "CA", "zipcode": 94101, "status": "Valid"}, {"name": "Brian Jackson", "Id": 130294587, "address": "307 Oakwood Ln", "city": "Columbus", "state": "OH", "zipcode": 43085, "status": "Suspended"}, {"name": "Rebecca White", "Id": 149285736, "address": "513 Cherry St", "city": "Fort Worth", "state": "TX", "zipcode": 76102, "status": "Valid"}, {"name": "Daniel Harris", "Id": 150987654, "address": "628 Alder Dr", "city": "Charlotte", "state": "NC", "zipcode": 28202}, {"name": "Elizabeth Clark", "Id": 169874123, "address": "739 Cedar Ln", "city": "Indianapolis", "state": "IN", "zipcode": 46201, "status": "Suspended"}, {"name": "Jelly Lewis", "Id": 178923456, "address": "840 Maple Rd", "city": "Seattle", "state": "WA", "zipcode": 98101, "status": "Valid"}, {"name": "Ashley Robinson", "Id": 189234567, "address": "175 Birchwood Dr", "city": "Denver", "state": "CO", "zipcode": 80014, "status": "Suspended"}, {"name": "Provider", "Id": 123, "address": "123 Main St", "city": "City", "state": "State", "zipcode": "12345"}, {"name": "InvalidProvider", "Id": 123456789, "address": "123 Main St", "city": "City", "state": "State", "zipcode": "12345"}, {"name": "Provider", "Id": 123456785, "address": "246 Sally St", "city": "Portland", "state": "OR", "zipcode": "97123"}, {"name": "Provider", "Id": 1234, "address": "246 Sally St", "city": "Portland", "state": "OR", "zipcode": "97123"}]